[{"OBJECT_NAME":"STARS (KUKAI)","OBJECT_ID":"2009-002G","EPOCH":"2026-03-09T17:14:18.106368","MEAN_MOTION":14.9493854,"ECCENTRICITY":0.00097723,"INCLINATION":98.1461,"RA_OF_ASC_NODE":12.0831,"ARG_OF_PERICENTER":130.4363,"MEAN_ANOMALY":229.771,"EPHEMERIS_TYPE":0,"CLASSIFICATION_TYPE":"U","NORAD_CAT_ID":33498,"ELEMENT_SET_NO":999,"REV_AT_EPOCH":92361,"BSTAR":0.00058664337,"MEAN_MOTION_DOT":6.351e-5,"MEAN_MOTION_DDOT":0},{"OBJECT_NAME":"STARLINK-34388","OBJECT_ID":"2025-123D","EPOCH":"2026-03-09T17:54:45.198144","MEAN_MOTION":14.9832904,"ECCENTRICITY":0.00032892,"INCLINATION":70.0023,"RA_OF_ASC_NODE":194.4439,"ARG_OF_PERICENTER":266.0952,"MEAN_ANOMALY":93.9832,"EPHEMERIS_TYPE":0,"CLASSIFICATION_TYPE":"U","NORAD_CAT_ID":64294,"ELEMENT_SET_NO":999,"REV_AT_EPOCH":4284,"BSTAR":0.00020458474,"MEAN_MOTION_DOT":2.349e-5,"MEAN_MOTION_DDOT":0}]
