STARS (KUKAI)           
1 33498U 09002G   26068.71826512  .00006351  00000+0  58664-3 0  9998
2 33498  98.1461  12.0831 0009772 130.4363 229.7710 14.94938540923614
STARLINK-34388          
1 64294U 25123D   26068.74635646  .00002349  00000+0  20458-3 0  9990
2 64294  70.0023 194.4439 0003289 266.0952  93.9832 14.98329040 42847
